ONEWEB-0225             
1 48799U 21045AJ  26197.11248808 -.00000070  00000+0 -21955-3 0  9999
2 48799  87.8989 253.4359 0002274 111.5025 248.6348 13.15548338248223
ONEWEB-0215             
1 48800U 21045AK  26197.15843000  .00000182  00000+0  45034-3 0  9997
2 48800  87.8996 253.4109 0002430 113.3323 246.8063 13.15549560248101
ONEWEB-0216             
1 48801U 21045AL  26197.09188867 -.00000010  00000+0 -60411-4 0  9993
2 48801  87.8992 253.4380 0002021  97.1077 263.0283 13.15548152248101
ONEWEB-0239             
1 48802U 21045AM  26197.09664373 -.00000064  00000+0 -20454-3 0  9996
2 48802  87.8981 253.4409 0002750 110.2327 249.9099 13.15548176248144
ONEWEB-0249             
1 48967U 21060A   26197.08371212  .00000080  00000+0  17553-3 0  9993
2 48967  87.9080 223.0380 0002170  95.1533 264.9846 13.16592713243413
ONEWEB-0250             
1 48968U 21060B   26197.13620288 -.00000025  00000+0 -86661-4 0  9998
2 48968  87.9080 220.6896 0003063  85.1535 274.9950 13.25835235244059
ONEWEB-0252             
1 48970U 21060D   26197.11460333 -.00000007  00000+0 -53172-4 0  9993
2 48970  87.9078 223.0243 0001866  96.3537 263.7806 13.16595029243461
ONEWEB-0253             
1 48971U 21060E   26197.10352176 -.00000039  00000+0 -13536-3 0  9992
2 48971  87.9079 223.0319 0002214  93.5781 266.5603 13.16595195243397
ONEWEB-0254             
1 48972U 21060F   26197.11302832  .00000006  00000+0 -17548-4 0  9999
2 48972  87.9080 223.0281 0002334  98.7780 261.3616 13.16594133243395
ONEWEB-0255             
1 48973U 21060G   26197.07502918  .00000119  00000+0  27860-3 0  9993
2 48973  87.9079 223.0415 0002172  98.0567 262.0811 13.16594363243467
ONEWEB-0256             
1 48974U 21060H   26197.10115226 -.00001077  00000+0 -28512-2 0  9990
2 48974  87.9079 223.0392 0001822  92.9547 267.1792 13.16582443243431
ONEWEB-0257             
1 48975U 21060J   26197.13360994  .00000092  00000+0  20743-3 0  9991
2 48975  87.9076 223.0215 0002050  98.3909 261.7455 13.16593794243391
ONEWEB-0258             
1 48976U 21060K   26197.13519343  .00000039  00000+0  67864-4 0  9993
2 48976  87.9080 223.0337 0002171  96.5605 263.5773 13.16594151243402
ONEWEB-0259             
1 48977U 21060L   26197.12886041  .00000051  00000+0  99864-4 0  9994
2 48977  87.9078 223.0332 0002284  96.2249 263.9142 13.16593841243433
ONEWEB-0260             
1 48978U 21060M   26197.12013196 -.00000026  00000+0 -10112-3 0  9990
2 48978  87.9073 223.0354 0001680  94.2825 265.8498 13.16595199243411
ONEWEB-0261             
1 48979U 21060N   26197.09007392  .00000046  00000+0  86370-4 0  9998
2 48979  87.9079 223.0420 0002091 102.3968 257.7397 13.16594755243468
ONEWEB-0262             
1 48980U 21060P   26197.07027887  .00000113  00000+0  26147-3 0  9999
2 48980  87.9080 223.0326 0002348  95.6104 264.5295 13.16594136243420
ONEWEB-0263             
1 48981U 21060Q   26197.10194234 -.00000034  00000+0 -12317-3 0  9993
2 48981  87.9080 223.0382 0002197 101.9001 258.2377 13.16593623243399
ONEWEB-0264             
1 48982U 21060R   26197.13913824  .00000039  00000+0  67466-4 0  9990
2 48982  87.9072 223.0328 0001938  98.0180 262.1171 13.16592190243403
ONEWEB-0266             
1 48984U 21060T   26197.08451475  .00000049  00000+0  93787-4 0  9991
2 48984  87.9082 223.0351 0002125  91.3414 268.7961 13.16596076243380
ONEWEB-0267             
1 48985U 21060U   26197.09561087 -.00000014  00000+0 -70320-4 0  9996
2 48985  87.9080 223.0296 0002044  98.8368 261.2995 13.16594118243398
ONEWEB-0268             
1 48986U 21060V   26197.06393950  .00000750  00000+0  19272-2 0  9998
2 48986  87.9078 223.0453 0001902  93.9446 266.1902 13.16598631243651
ONEWEB-0269             
1 48987U 21060W   26197.12094247  .00000022  00000+0  23323-4 0  9999
2 48987  87.9073 223.0346 0001967  89.4087 270.7269 13.16593986243431
ONEWEB-0270             
1 48988U 21060X   26197.06234014 -.00001216  00000+0 -32149-2 0  9993
2 48988  87.9084 223.0477 0002295 100.2105 259.9284 13.16598768243469
ONEWEB-0271             
1 48989U 21060Y   26197.12569485 -.00000042  00000+0 -14431-3 0  9995
2 48989  87.9077 223.0245 0002136 100.4054 259.7318 13.16593851243479
ONEWEB-0272             
1 48990U 21060Z   26197.14785294  .00000040  00000+0  72212-4 0  9995
2 48990  87.9073 223.0306 0001824  98.8586 261.2751 13.16595318243422
ONEWEB-0273             
1 48991U 21060AA  26197.09402395  .00000036  00000+0  61373-4 0  9999
2 48991  87.9076 223.0425 0002177  96.6632 263.4746 13.16594578243399
ONEWEB-0274             
1 48992U 21060AB  26197.11934492  .00000069  00000+0  14794-3 0  9991
2 48992  87.9068 223.0369 0001756  95.1259 265.0072 13.16595451243435
ONEWEB-0275             
1 48993U 21060AC  26197.10826212 -.00000006  00000+0 -50323-4 0  9993
2 48993  87.9080 223.0311 0002006  95.6258 264.5102 13.16595688243362
ONEWEB-0276             
1 48994U 21060AD  26197.14152834 -.00000044  00000+0 -14760-3 0  9996
2 48994  87.9080 223.0235 0001898  95.1693 264.9654 13.16593188243385
ONEWEB-0277             
1 48995U 21060AE  26197.07819816  .00000138  00000+0  32704-3 0  9999
2 48995  87.9074 223.0432 0002169  98.2593 261.8783 13.16595798243369
