OBJECT_NAME,OBJECT_ID,EPOCH,MEAN_MOTION,ECCENTRICITY,INCLINATION,RA_OF_ASC_NODE,ARG_OF_PERICENTER,MEAN_ANOMALY,EPHEMERIS_TYPE,CLASSIFICATION_TYPE,NORAD_CAT_ID,ELEMENT_SET_NO,REV_AT_EPOCH,BSTAR,MEAN_MOTION_DOT,MEAN_MOTION_DDOT
ONEWEB-0225,2021-045AJ,2026-07-16T02:41:58.970112,13.15548338,.0002274,87.8989,253.4359,111.5025,248.6348,0,U,48799,999,24822,-.21955E-3,-.7E-6,0
ONEWEB-0215,2021-045AK,2026-07-16T03:48:08.352000,13.15549560,.000243,87.8996,253.4109,113.3323,246.8063,0,U,48800,999,24810,.45034E-3,.182E-5,0
ONEWEB-0216,2021-045AL,2026-07-16T02:12:19.181088,13.15548152,.0002021,87.8992,253.4380,97.1077,263.0283,0,U,48801,999,24810,-.60411E-4,-.1E-6,0
ONEWEB-0239,2021-045AM,2026-07-16T02:19:10.018272,13.15548176,.000275,87.8981,253.4409,110.2327,249.9099,0,U,48802,999,24814,-.20454E-3,-.64E-6,0
ONEWEB-0249,2021-060A,2026-07-16T02:00:32.727168,13.16592713,.000217,87.9080,223.0380,95.1533,264.9846,0,U,48967,999,24341,.17553E-3,.8E-6,0
ONEWEB-0250,2021-060B,2026-07-16T03:16:07.928832,13.25835235,.0003063,87.9080,220.6896,85.1535,274.9950,0,U,48968,999,24405,-.86661E-4,-.25E-6,0
ONEWEB-0252,2021-060D,2026-07-16T02:45:01.727712,13.16595029,.0001866,87.9078,223.0243,96.3537,263.7806,0,U,48970,999,24346,-.53172E-4,-.7E-7,0
ONEWEB-0253,2021-060E,2026-07-16T02:29:04.280064,13.16595195,.0002214,87.9079,223.0319,93.5781,266.5603,0,U,48971,999,24339,-.13536E-3,-.39E-6,0
ONEWEB-0254,2021-060F,2026-07-16T02:42:45.646848,13.16594133,.0002334,87.9080,223.0281,98.7780,261.3616,0,U,48972,999,24339,-.17548E-4,.6E-7,0
ONEWEB-0255,2021-060G,2026-07-16T01:48:02.521152,13.16594363,.0002172,87.9079,223.0415,98.0567,262.0811,0,U,48973,999,24346,.2786E-3,.119E-5,0
ONEWEB-0256,2021-060H,2026-07-16T02:25:39.555264,13.16582443,.0001822,87.9079,223.0392,92.9547,267.1792,0,U,48974,999,24343,-.28512E-2,-.1077E-4,0
ONEWEB-0257,2021-060J,2026-07-16T03:12:23.898816,13.16593794,.000205,87.9076,223.0215,98.3909,261.7455,0,U,48975,999,24339,.20743E-3,.92E-6,0
ONEWEB-0258,2021-060K,2026-07-16T03:14:40.712352,13.16594151,.0002171,87.9080,223.0337,96.5605,263.5773,0,U,48976,999,24340,.67864E-4,.39E-6,0
ONEWEB-0259,2021-060L,2026-07-16T03:05:33.539424,13.16593841,.0002284,87.9078,223.0332,96.2249,263.9142,0,U,48977,999,24343,.99864E-4,.51E-6,0
ONEWEB-0260,2021-060M,2026-07-16T02:52:59.401344,13.16595199,.000168,87.9073,223.0354,94.2825,265.8498,0,U,48978,999,24341,-.10112E-3,-.26E-6,0
ONEWEB-0261,2021-060N,2026-07-16T02:09:42.386688,13.16594755,.0002091,87.9079,223.0420,102.3968,257.7397,0,U,48979,999,24346,.8637E-4,.46E-6,0
ONEWEB-0262,2021-060P,2026-07-16T01:41:12.094368,13.16594136,.0002348,87.9080,223.0326,95.6104,264.5295,0,U,48980,999,24342,.26147E-3,.113E-5,0
ONEWEB-0263,2021-060Q,2026-07-16T02:26:47.818176,13.16593623,.0002197,87.9080,223.0382,101.9001,258.2377,0,U,48981,999,24339,-.12317E-3,-.34E-6,0
ONEWEB-0264,2021-060R,2026-07-16T03:20:21.543936,13.16592190,.0001938,87.9072,223.0328,98.0180,262.1171,0,U,48982,999,24340,.67466E-4,.39E-6,0
ONEWEB-0266,2021-060T,2026-07-16T02:01:42.074400,13.16596076,.0002125,87.9082,223.0351,91.3414,268.7961,0,U,48984,999,24338,.93787E-4,.49E-6,0
ONEWEB-0267,2021-060U,2026-07-16T02:17:40.779168,13.16594118,.0002044,87.9080,223.0296,98.8368,261.2995,0,U,48985,999,24339,-.7032E-4,-.14E-6,0
ONEWEB-0268,2021-060V,2026-07-16T01:32:04.372800,13.16598631,.0001902,87.9078,223.0453,93.9446,266.1902,0,U,48986,999,24365,.19272E-2,.75E-5,0
ONEWEB-0269,2021-060W,2026-07-16T02:54:09.429408,13.16593986,.0001967,87.9073,223.0346,89.4087,270.7269,0,U,48987,999,24343,.23323E-4,.22E-6,0
ONEWEB-0270,2021-060X,2026-07-16T01:29:46.188096,13.16598768,.0002295,87.9084,223.0477,100.2105,259.9284,0,U,48988,999,24346,-.32149E-2,-.1216E-4,0
ONEWEB-0271,2021-060Y,2026-07-16T03:01:00.035040,13.16593851,.0002136,87.9077,223.0245,100.4054,259.7318,0,U,48989,999,24347,-.14431E-3,-.42E-6,0
ONEWEB-0272,2021-060Z,2026-07-16T03:32:54.494016,13.16595318,.0001824,87.9073,223.0306,98.8586,261.2751,0,U,48990,999,24342,.72212E-4,.4E-6,0
ONEWEB-0273,2021-060AA,2026-07-16T02:15:23.669280,13.16594578,.0002177,87.9076,223.0425,96.6632,263.4746,0,U,48991,999,24339,.61373E-4,.36E-6,0
ONEWEB-0274,2021-060AB,2026-07-16T02:51:51.401088,13.16595451,.0001756,87.9068,223.0369,95.1259,265.0072,0,U,48992,999,24343,.14794E-3,.69E-6,0
ONEWEB-0275,2021-060AC,2026-07-16T02:35:53.847168,13.16595688,.0002006,87.9080,223.0311,95.6258,264.5102,0,U,48993,999,24336,-.50323E-4,-.6E-7,0
ONEWEB-0276,2021-060AD,2026-07-16T03:23:48.048576,13.16593188,.0001898,87.9080,223.0235,95.1693,264.9654,0,U,48994,999,24338,-.1476E-3,-.44E-6,0
ONEWEB-0277,2021-060AE,2026-07-16T01:52:36.321024,13.16595798,.0002169,87.9074,223.0432,98.2593,261.8783,0,U,48995,999,24336,.32704E-3,.138E-5,0
